[{"OBJECT_NAME":"OBJECT B","OBJECT_ID":"2024-203B","EPOCH":"2026-03-09T23:52:52.928256","MEAN_MOTION":15.27506959,"ECCENTRICITY":0.00103904,"INCLINATION":97.4268,"RA_OF_ASC_NODE":139.5887,"ARG_OF_PERICENTER":321.1475,"MEAN_ANOMALY":38.9016,"EPHEMERIS_TYPE":0,"CLASSIFICATION_TYPE":"U","NORAD_CAT_ID":61870,"ELEMENT_SET_NO":999,"REV_AT_EPOCH":7381,"BSTAR":0.00063263842,"MEAN_MOTION_DOT":0.00016997,"MEAN_MOTION_DDOT":0},{"OBJECT_NAME":"STARLINK-35807","OBJECT_ID":"2025-254L","EPOCH":"2026-03-09T17:55:02.013312","MEAN_MOTION":15.30194012,"ECCENTRICITY":9.05e-5,"INCLINATION":53.1576,"RA_OF_ASC_NODE":232.243,"ARG_OF_PERICENTER":70.768,"MEAN_ANOMALY":289.3418,"EPHEMERIS_TYPE":0,"CLASSIFICATION_TYPE":"U","NORAD_CAT_ID":66358,"ELEMENT_SET_NO":999,"REV_AT_EPOCH":1898,"BSTAR":0.00088349964,"MEAN_MOTION_DOT":0.00025894,"MEAN_MOTION_DDOT":0}]
